0 PSLV DEB
1 27267U 01049HP  13282.13048578  .00004539  00000-0  61123-3 0  6219
2 27267 097.8372 244.9676 0053620 305.0943 054.5247 14.78690367633864
0 PSLV DEB
1 27267U 01049HP  13283.14550957  .00004565  00000-0  61456-3 0  6229
2 27267 097.8371 245.9568 0053571 301.7160 057.8835 14.78697408634013
0 PSLV DEB
1 27267U 01049HP  13286.12288280  .00003806  00000-0  51335-3 0  6241
2 27267 097.8369 248.8568 0053475 291.8631 067.6898 14.78722820634450
0 PSLV DEB
1 27267U 01049HP  13287.13788453  .00004264  00000-0  57417-3 0  6257
2 27267 097.8370 249.8459 0053440 288.4668 071.0740 14.78728119634605
0 PSLV DEB
1 27267U 01049HP  13288.15288179  .00007662  00000-0  10253-2 0  6262
2 27267 097.8369 250.8348 0053365 285.0070 074.5239 14.78738992634755
0 PSLV DEB
1 27267U 01049HP  13289.37086937  .00005952  00000-0  79810-3 0  6271
2 27267 097.8373 252.0210 0053281 280.9627 078.5593 14.78753997634930
0 PSLV DEB
1 27267U 01049HP  13290.65651036  .00005745  00000-0  77035-3 0  6280
2 27267 097.8379 253.2734 0053308 276.6517 082.8628 14.78767720635128
0 PSLV DEB
1 27267U 01049HP  13291.67148176  .00005335  00000-0  71585-3 0  6299
2 27267 097.8384 254.2624 0053324 273.2493 086.2619 14.78775314635279
0 PSLV DEB
1 27267U 01049HP  13292.68644792  .00005797  00000-0  77695-3 0  6308
2 27267 097.8389 255.2511 0053286 269.8272 089.6833 14.78784526635420
0 PSLV DEB
1 27267U 01049HP  13293.83673582  .00006242  00000-0  83579-3 0  6310
2 27267 097.8393 256.3718 0053261 265.9546 093.5576 14.78796711635595
0 PSLV DEB
1 27267U 01049HP  13295.12234097  .00005624  00000-0  75354-3 0  6324
2 27267 097.8394 257.6247 0053304 261.6461 097.8705 14.78810212635789
